EPOCH,NORAD_CAT_ID,MEAN_MOTION,ECCENTRICITY,INCLINATION,RA_OF_ASC_NODE,ARG_OF_PERICENTER,MEAN_ANOMALY,MEAN_MOTION_DOT,BSTAR,TLE_LINE1,TLE_LINE2
2024-01-10 19:14:40.938144,50803,15.08851419,0.00013430,53.2166,110.5759,91.8904,268.2242,0.00000892,0.00007412800000,1 50803U 22001A   24010.80186271  .00000892  00000-0  74128-4 0  9996,2 50803  53.2166 110.5759 0001343  91.8904 268.2242 15.08851419112586
2024-01-11 11:08:32.877024,50803,15.08845904,0.00013770,53.2165,107.6029,83.6189,276.4960,0.00000074,0.00002272200000,1 50803U 22001A   24011.46426941  .00000074  00000-0  22722-4 0  9995,2 50803  53.2165 107.6029 0001377  83.6189 276.4960 15.08845904112684
2024-01-11 12:43:55.941312,50803,15.08846658,0.00013920,53.2163,107.3054,84.8158,275.2993,0.00000214,0.00003152200000,1 50803U 22001A   24011.53050858  .00000214  00000-0  31522-4 0  9997,2 50803  53.2163 107.3054 0001392  84.8158 275.2993 15.08846658111424
2024-01-12 10:59:20.172768,50803,15.08843750,0.00014040,53.2163,103.1424,85.8707,274.2446,-0.00000625,-0.00002116500000,1 50803U 22001A   24012.45787237 -.00000625  00000-0 -21165-4 0  9997,2 50803  53.2163 103.1424 0001404  85.8707 274.2446 15.08843750112832
2024-01-12 12:34:43.208544,50803,15.08845088,0.00014250,53.2163,102.8451,82.3524,277.7630,-0.00000448,-0.00001006000000,1 50803U 22001A   24012.52411121 -.00000448  00000-0 -10060-4 0  9996,2 50803  53.2163 102.8451 0001425  82.3524 277.7630 15.08845088111579
2024-01-12 15:45:29.274048,50803,15.08846430,0.00014000,53.2162,102.2497,90.9468,269.1685,-0.00000182,0.00000667410000,1 50803U 22001A   24012.65658882 -.00000182  00000-0  66741-5 0  9999,2 50803  53.2162 102.2497 0001400  90.9468 269.1685 15.08846430111596
2024-01-13 10:50:07.654272,50803,15.08836917,0.00014800,53.2163,98.6811,88.4950,271.6212,-0.00000719,-0.00002709700000,1 50803U 22001A   24013.45147748 -.00000719  00000-0 -27097-4 0  9999,2 50803  53.2163  98.6811 0001480  88.4950 271.6212 15.08836917112988
2024-01-13 12:25:30.529344,50803,15.08839994,0.00015440,53.2167,98.3831,93.2553,266.8616,-0.00000066,0.00001396400000,1 50803U 22001A   24013.51771446 -.00000066  00000-0  13964-4 0  9996,2 50803  53.2167  98.3831 0001544  93.2553 266.8616 15.08839994111728
2024-01-13 15:36:16.591392,50803,15.08842270,0.00015800,53.2165,97.7878,92.3881,267.7292,0.00000407,0.00004366400000,1 50803U 22001A   24013.65019203  .00000407  00000-0  43664-4 0  9995,2 50803  53.2165  97.7878 0001580  92.3881 267.7292 15.08842270113019
2024-01-14 04:19:22.457856,50803,15.08834561,0.00015900,53.2176,95.4065,103.6239,256.4930,-0.00000855,-0.00003562800000,1 50803U 22001A   24014.18012104 -.00000855  00000-0 -35628-4 0  9997,2 50803  53.2176  95.4065 0001590 103.6239 256.4930 15.08834561113094
2024-01-14 10:40:54.588000,50803,15.08839174,0.00014740,53.2164,94.2212,88.0279,272.0882,0.00000119,0.00002559600000,1 50803U 22001A   24014.44507625  .00000119  00000-0  25596-4 0  9997,2 50803  53.2164  94.2212 0001474  88.0279 272.0882 15.08839174111861
2024-01-14 10:40:54.588000,50803,15.08839174,0.00014740,53.2164,94.2212,88.0279,272.0882,0.00000119,0.00002559600000,1 50803U 22001A   24014.44507625  .00000119  00000-0  25596-4 0  9997,2 50803  53.2164  94.2212 0001474  88.0279 272.0882 15.08839174113133
2024-01-15 10:31:41.484576,50803,15.08843975,0.00014180,53.2164,89.7621,78.9813,281.1338,0.00000357,0.00004052400000,1 50803U 22001A   24015.43867459  .00000357  00000-0  40524-4 0  9993,2 50803  53.2164  89.7621 0001418  78.9813 281.1338 15.08843975112013
2024-01-16 04:00:56.632896,50803,15.08834180,0.00017190,53.2169,86.4924,86.1472,273.9716,0.00000122,0.00002575700000,1 50803U 22001A   24016.16732214  .00000122  00000-0  25757-4 0  9995,2 50803  53.2169  86.4924 0001719  86.1472 273.9716 15.08834180113393
2024-01-16 10:22:29.766144,50803,15.08831043,0.00014370,53.2172,85.3009,79.2104,280.9050,-0.00001218,-0.00005845800000,1 50803U 22001A   24016.43228896 -.00001218  00000-0 -58458-4 0  9994,2 50803  53.2172  85.3009 0001437  79.2104 280.9050 15.08831043112169
2024-01-16 10:22:29.766144,50803,15.08831043,0.00014370,53.2172,85.3009,79.2104,280.9050,-0.00001218,-0.00005845800000,1 50803U 22001A   24016.43228896 -.00001218  00000-0 -58458-4 0  9994,2 50803  53.2172  85.3009 0001437  79.2104 280.9050 15.08831043113430
2024-01-16 23:05:34.651968,50803,15.08838386,0.00014040,53.2166,82.9187,108.4475,251.6670,-0.00001411,-0.00007060500000,1 50803U 22001A   24016.96220662 -.00001411  00000-0 -70605-4 0  9998,2 50803  53.2166  82.9187 0001404 108.4475 251.6670 15.08838386113512
2024-01-17 11:48:39.223296,50803,15.08843141,0.00016320,53.2177,80.5468,68.6325,291.4841,0.00001129,0.00008898200000,1 50803U 22001A   24017.49212064  .00001129  00000-0  88982-4 0  9995,2 50803  53.2177  80.5468 0001632  68.6325 291.4841 15.08843141113599
2024-01-17 11:48:39.223296,50803,15.08843141,0.00016320,53.2177,80.5468,68.6325,291.4841,0.00001129,0.00008898200000,1 50803U 22001A   24017.49212064  .00001129  00000-0  88982-4 0  9995,2 50803  53.2177  80.5468 0001632  68.6325 291.4841 15.08843141112329
2024-01-17 22:56:21.399936,50803,15.08830170,0.00023030,53.2180,78.4696,43.4272,316.6901,0.00003409,0.00023228000000,1 50803U 22001A   24017.95580324  .00003409  00000-0  23228-3 0  9997,2 50803  53.2180  78.4696 0002303  43.4272 316.6901 15.08830170113663
2024-01-18 10:04:03.727776,50803,15.08832189,0.00019450,53.2168,76.3833,55.3876,304.7299,0.00001917,0.00013853000000,1 50803U 22001A   24018.41948759  .00001917  00000-0  13853-3 0  9994,2 50803  53.2168  76.3833 0001945  55.3876 304.7299 15.08832189112469
2024-01-19 03:33:17.986176,50803,15.08840864,0.00017890,53.2168,73.1121,71.6282,288.4904,0.00000115,0.00002532500000,1 50803U 22001A   24019.14812484  .00000115  00000-0  25325-4 0  9997,2 50803  53.2168  73.1121 0001789  71.6282 288.4904 15.08840864113845
2024-01-19 09:54:50.187168,50803,15.08843640,0.00017440,53.2181,71.9227,97.1118,263.0073,0.00000320,0.00003823000000,1 50803U 22001A   24019.41308087  .00000320  00000-0  38230-4 0  9993,2 50803  53.2181  71.9227 0001744  97.1118 263.0073 15.08843640112610
2024-01-20 09:45:37.793952,50803,15.08834093,0.00017990,53.2187,67.4634,107.6162,252.5026,-0.00000489,-0.00001260600000,1 50803U 22001A   24020.40668743 -.00000489  00000-0 -12606-4 0  9999,2 50803  53.2187  67.4634 0001799 107.6162 252.5026 15.08834093112763
2024-01-20 09:45:37.793952,50803,15.08834093,0.00017990,53.2187,67.4634,107.6162,252.5026,-0.00000489,-0.00001260600000,1 50803U 22001A   24020.40668743 -.00000489  00000-0 -12606-4 0  9999,2 50803  53.2187  67.4634 0001799 107.6162 252.5026 15.08834093114035
2024-01-21 06:25:38.588736,50803,15.08836698,0.00015520,53.2184,63.5984,84.7558,275.3611,0.00000059,0.00002179100000,1 50803U 22001A   24021.26780774  .00000059  00000-0  21791-4 0  9999,2 50803  53.2184  63.5984 0001552  84.7558 275.3611 15.08836698112896
2024-01-21 09:36:24.587712,50803,15.08839995,0.00016170,53.2185,63.0035,93.0137,267.1040,0.00000506,0.00004990100000,1 50803U 22001A   24021.40028458  .00000506  00000-0  49901-4 0  9999,2 50803  53.2185  63.0035 0001617  93.0137 267.1040 15.08839995114189
2024-01-21 09:36:24.587712,50803,15.08839995,0.00016170,53.2185,63.0035,93.0137,267.1040,0.00000506,0.00004990100000,1 50803U 22001A   24021.40028458  .00000506  00000-0  49901-4 0  9999,2 50803  53.2185  63.0035 0001617  93.0137 267.1040 15.08839995112918
2024-01-22 03:05:39.898464,50803,15.08828714,0.00016440,53.2178,59.7319,77.7153,282.4023,0.00000162,0.00002830700000,1 50803U 22001A   24022.12893401  .00000162  00000-0  28307-4 0  9992,2 50803  53.2178  59.7319 0001644  77.7153 282.4023 15.08828714114295
2024-01-22 06:16:26.161824,50803,15.08828687,0.00015870,53.2174,59.1350,88.5295,271.5879,0.00000283,0.00003589600000,1 50803U 22001A   24022.26141391  .00000283  00000-0  35896-4 0  9996,2 50803  53.2174  59.1350 0001587  88.5295 271.5879 15.08828687113042
2024-01-22 07:51:49.313376,50803,15.08829486,0.00015920,53.2177,58.8386,85.3223,274.7951,0.00000279,0.00003565600000,1 50803U 22001A   24022.32765409  .00000279  00000-0  35656-4 0  9994,2 50803  53.2177  58.8386 0001592  85.3223 274.7951 15.08829486113057
2024-01-22 22:10:17.457888,50803,15.08835744,0.00016260,53.2168,56.1614,59.6722,300.4431,0.00000244,0.00003340700000,1 50803U 22001A   24022.92381317  .00000244  00000-0  33407-4 0  9996,2 50803  53.2168  56.1614 0001626  59.6722 300.4431 15.08835744114413
2024-01-23 06:07:12.883872,50803,15.08839634,0.00016110,53.2173,54.6757,69.3569,290.7595,0.00000713,0.00006290900000,1 50803U 22001A   24023.25501023  .00000713  00000-0  62909-4 0  9991,2 50803  53.2173  54.6757 0001611  69.3569 290.7595 15.08839634113199
2024-01-23 09:17:58.907040,50803,15.08843044,0.00016440,53.2174,54.0813,68.3867,291.7300,0.00001120,0.00008842400000,1 50803U 22001A   24023.38748735  .00001120  00000-0  88424-4 0  9991,2 50803  53.2174  54.0813 0001644  68.3867 291.7300 15.08843044113211
2024-01-23 09:17:58.907040,50803,15.08843044,0.00016440,53.2174,54.0813,68.3867,291.7300,0.00001120,0.00008842400000,1 50803U 22001A   24023.38748735  .00001120  00000-0  88424-4 0  9991,2 50803  53.2174  54.0813 0001644  68.3867 291.7300 15.08843044114481
2024-01-24 09:08:47.065920,50803,15.08831481,0.00020470,53.2188,49.6277,71.6255,288.4959,0.00000139,0.00002686500000,1 50803U 22001A   24024.38110030  .00000139  00000-0  26865-4 0  9993,2 50803  53.2188  49.6277 0002047  71.6255 288.4959 15.08831481113367
2024-01-24 09:08:47.065920,50803,15.08831481,0.00020470,53.2188,49.6277,71.6255,288.4959,0.00000139,0.00002686500000,1 50803U 22001A   24024.38110030  .00000139  00000-0  26865-4 0  9993,2 50803  53.2188  49.6277 0002047  71.6255 288.4959 15.08831481114638
2024-01-25 08:59:33.108000,50803,15.08845033,0.00015920,53.2192,45.1580,73.5196,286.5971,0.00001078,0.00008579700000,1 50803U 22001A   24025.37468875  .00001078  00000-0  85797-4 0  9998,2 50803  53.2192  45.1580 0001592  73.5196 286.5971 15.08845033113517
